{
  "type": "FeatureCollection",
  "features": [
    {
      "type": "Feature",
      "properties": {
        "norad_id": 29486,
        "name": "GPS BIIRM-2 (PRN 31)",
        "group": "gps-ops",
        "lat": -51.90373485267788,
        "lon": 94.40353466426376,
        "alt_km": 20356.379759078856,
        "timestamp": "2025-12-02T10:50:47.532636+00:00",
        "meta_object_name": "GPS BIIRM-2 (PRN 31)",
        "meta_object_id": "2006-042A",
        "meta_epoch": "2025-12-01T13:45:36.640800",
        "meta_mean_motion": 2.00554492,
        "meta_eccentricity": 0.01073693,
        "meta_inclination": 54.6925,
        "meta_ra_of_asc_node": 159.184,
        "meta_arg_of_pericenter": 51.6942,
        "meta_mean_anomaly": 320.2253,
        "meta_ephemeris_type": 0,
        "meta_classification_type": "U",
        "meta_norad_cat_id": 29486,
        "meta_element_set_no": 999,
        "meta_rev_at_epoch": 14043,
        "meta_bstar": 0,
        "meta_mean_motion_dot": 1.26e-06,
        "meta_mean_motion_ddot": 0,
        "tle_line1": "1 29486U 06042A   25335.57334075  .00000126  00000+0  00000+0 0  9990",
        "tle_line2": "2 29486  54.6925 159.1840 0107369  51.6942 320.2253  2.00554492140433"
      },
      "geometry": {
        "type": "Point",
        "coordinates": [
          94.40353466426376,
          -51.90373485267788
        ]
      }
    },
    {
      "type": "Feature",
      "properties": {
        "norad_id": 29601,
        "name": "GPS BIIRM-3 (PRN 12)",
        "group": "gps-ops",
        "lat": -14.496989462226972,
        "lon": -148.62551109873482,
        "alt_km": 20242.066525128,
        "timestamp": "2025-12-02T10:50:47.532648+00:00",
        "meta_object_name": "GPS BIIRM-3 (PRN 12)",
        "meta_object_id": "2006-052A",
        "meta_epoch": "2025-11-30T23:32:34.416960",
        "meta_mean_motion": 2.00572625,
        "meta_eccentricity": 0.0087464,
        "meta_inclination": 54.9732,
        "meta_ra_of_asc_node": 221.865,
        "meta_arg_of_pericenter": 87.3176,
        "meta_mean_anomaly": 273.7605,
        "meta_ephemeris_type": 0,
        "meta_classification_type": "U",
        "meta_norad_cat_id": 29601,
        "meta_element_set_no": 999,
        "meta_rev_at_epoch": 13943,
        "meta_bstar": 0,
        "meta_mean_motion_dot": 4.7e-07,
        "meta_mean_motion_ddot": 0,
        "tle_line1": "1 29601U 06052A   25334.98095390  .00000047  00000+0  00000+0 0  9990",
        "tle_line2": "2 29601  54.9732 221.8650 0087464  87.3176 273.7605  2.00572625139434"
      },
      "geometry": {
        "type": "Point",
        "coordinates": [
          -148.62551109873482,
          -14.496989462226972
        ]
      }
    },
    {
      "type": "Feature",
      "properties": {
        "norad_id": 32260,
        "name": "GPS BIIRM-4 (PRN 15)",
        "group": "gps-ops",
        "lat": 41.62067946743522,
        "lon": -132.11014251081352,
        "alt_km": 19838.322590335374,
        "timestamp": "2025-12-02T10:50:47.532660+00:00",
        "meta_object_name": "GPS BIIRM-4 (PRN 15)",
        "meta_object_id": "2007-047A",
        "meta_epoch": "2025-12-01T06:52:15.674592",
        "meta_mean_motion": 2.00564902,
        "meta_eccentricity": 0.0164402,
        "meta_inclination": 53.9473,
        "meta_ra_of_asc_node": 88.2317,
        "meta_arg_of_pericenter": 85.1099,
        "meta_mean_anomaly": 276.7472,
        "meta_ephemeris_type": 0,
        "meta_classification_type": "U",
        "meta_norad_cat_id": 32260,
        "meta_element_set_no": 999,
        "meta_rev_at_epoch": 13284,
        "meta_bstar": 0,
        "meta_mean_motion_dot": -3e-08,
        "meta_mean_motion_ddot": 0,
        "tle_line1": "1 32260U 07047A   25335.28629253 -.00000003  00000+0  00000+0 0  9998",
        "tle_line2": "2 32260  53.9473  88.2317 0164402  85.1099 276.7472  2.00564902132845"
      },
      "geometry": {
        "type": "Point",
        "coordinates": [
          -132.11014251081352,
          41.62067946743522
        ]
      }
    },
    {
      "type": "Feature",
      "properties": {
        "norad_id": 32384,
        "name": "GPS BIIRM-5 (PRN 29)",
        "group": "gps-ops",
        "lat": -51.64532129977057,
        "lon": 163.467486961517,
        "alt_km": 20186.1834512459,
        "timestamp": "2025-12-02T10:50:47.532688+00:00",
        "meta_object_name": "GPS BIIRM-5 (PRN 29)",
        "meta_object_id": "2007-062A",
        "meta_epoch": "2025-11-30T05:30:32.984352",
        "meta_mean_motion": 2.00576538,
        "meta_eccentricity": 0.0032199,
        "meta_inclination": 55.1933,
        "meta_ra_of_asc_node": 282.1478,
        "meta_arg_of_pericenter": 162.9414,
        "meta_mean_anomaly": 284.6025,
        "meta_ephemeris_type": 0,
        "meta_classification_type": "U",
        "meta_norad_cat_id": 32384,
        "meta_element_set_no": 999,
        "meta_rev_at_epoch": 13152,
        "meta_bstar": 0,
        "meta_mean_motion_dot": -4e-07,
        "meta_mean_motion_ddot": 0,
        "tle_line1": "1 32384U 07062A   25334.22954843 -.00000040  00000+0  00000+0 0  9992",
        "tle_line2": "2 32384  55.1933 282.1478 0032199 162.9414 284.6025  2.00576538131526"
      },
      "geometry": {
        "type": "Point",
        "coordinates": [
          163.467486961517,
          -51.64532129977057
        ]
      }
    },
    {
      "type": "Feature",
      "properties": {
        "norad_id": 32711,
        "name": "GPS BIIRM-6 (PRN 07)",
        "group": "gps-ops",
        "lat": 4.123801173394096,
        "lon": -25.174336042994245,
        "alt_km": 19988.50338497141,
        "timestamp": "2025-12-02T10:50:47.532702+00:00",
        "meta_object_name": "GPS BIIRM-6 (PRN 07)",
        "meta_object_id": "2008-012A",
        "meta_epoch": "2025-12-01T16:55:34.258368",
        "meta_mean_motion": 2.00564997,
        "meta_eccentricity": 0.0202013,
        "meta_inclination": 54.4753,
        "meta_ra_of_asc_node": 157.8135,
        "meta_arg_of_pericenter": 244.8255,
        "meta_mean_anomaly": 113.1121,
        "meta_ephemeris_type": 0,
        "meta_classification_type": "U",
        "meta_norad_cat_id": 32711,
        "meta_element_set_no": 999,
        "meta_rev_at_epoch": 12979,
        "meta_bstar": 0,
        "meta_mean_motion_dot": 1.24e-06,
        "meta_mean_motion_ddot": 0,
        "tle_line1": "1 32711U 08012A   25335.70525762  .00000124  00000+0  00000+0 0  9992",
        "tle_line2": "2 32711  54.4753 157.8135 0202013 244.8255 113.1121  2.00564997129792"
      },
      "geometry": {
        "type": "Point",
        "coordinates": [
          -25.174336042994245,
          4.123801173394096
        ]
      }
    },
    {
      "type": "Feature",
      "properties": {
        "norad_id": 35752,
        "name": "GPS BIIRM-8 (PRN 05)",
        "group": "gps-ops",
        "lat": -14.593048106389459,
        "lon": -134.71742272904868,
        "alt_km": 20243.454207219682,
        "timestamp": "2025-12-02T10:50:47.532714+00:00",
        "meta_object_name": "GPS BIIRM-8 (PRN 05)",
        "meta_object_id": "2009-043A",
        "meta_epoch": "2025-12-01T04:42:32.815296",
        "meta_mean_motion": 2.00566259,
        "meta_eccentricity": 0.00521242,
        "meta_inclination": 56.0822,
        "meta_ra_of_asc_node": 35.2386,
        "meta_arg_of_pericenter": 82.0997,
        "meta_mean_anomaly": 288.3285,
        "meta_ephemeris_type": 0,
        "meta_classification_type": "U",
        "meta_norad_cat_id": 35752,
        "meta_element_set_no": 999,
        "meta_rev_at_epoch": 11939,
        "meta_bstar": 0,
        "meta_mean_motion_dot": -6.6e-07,
        "meta_mean_motion_ddot": 0,
        "tle_line1": "1 35752U 09043A   25335.19621314 -.00000066  00000+0  00000+0 0  9994",
        "tle_line2": "2 35752  56.0822  35.2386 0052124  82.0997 288.3285  2.00566259119397"
      },
      "geometry": {
        "type": "Point",
        "coordinates": [
          -134.71742272904868,
          -14.593048106389459
        ]
      }
    },
    {
      "type": "Feature",
      "properties": {
        "norad_id": 36585,
        "name": "GPS BIIF-1  (PRN 25)",
        "group": "gps-ops",
        "lat": -35.413173086754576,
        "lon": -174.21301964931584,
        "alt_km": 20300.294070186505,
        "timestamp": "2025-12-02T10:50:47.532726+00:00",
        "meta_object_name": "GPS BIIF-1  (PRN 25)",
        "meta_object_id": "2010-022A",
        "meta_epoch": "2025-12-01T06:27:39.458016",
        "meta_mean_motion": 2.00552516,
        "meta_eccentricity": 0.0125618,
        "meta_inclination": 54.3025,
        "meta_ra_of_asc_node": 216.5366,
        "meta_arg_of_pericenter": 64.9463,
        "meta_mean_anomaly": 117.0243,
        "meta_ephemeris_type": 0,
        "meta_classification_type": "U",
        "meta_norad_cat_id": 36585,
        "meta_element_set_no": 999,
        "meta_rev_at_epoch": 11362,
        "meta_bstar": 0,
        "meta_mean_motion_dot": 6e-07,
        "meta_mean_motion_ddot": 0,
        "tle_line1": "1 36585U 10022A   25335.26920669  .00000060  00000+0  00000+0 0  9994",
        "tle_line2": "2 36585  54.3025 216.5366 0125618  64.9463 117.0243  2.00552516113629"
      },
      "geometry": {
        "type": "Point",
        "coordinates": [
          -174.21301964931584,
          -35.413173086754576
        ]
      }
    }
  ]
}